IRIDIUM 116             
1 43072U 17083C   25239.83836862  .00000042  00000+0  80491-5 0  9992
2 43072  86.3910  84.6465 0002373  88.6774 271.4694 14.34217185402121
IRIDIUM 130             
1 43073U 17083D   25239.80665577  .00000105  00000+0  30459-4 0  9991
2 43073  86.3919  84.9069 0002381  94.7089 265.4379 14.34217503402060
IRIDIUM 151             
1 43074U 17083E   25239.85105501  .00000028  00000+0  29354-5 0  9990
2 43074  86.3910  84.6924 0002390  88.2857 271.8613 14.34217849402098
IRIDIUM 134             
1 43075U 17083F   25239.81934136  .00000195  00000+0  62445-4 0  9993
2 43075  86.3919  84.7100 0002253  93.3153 266.8300 14.34216957402051
IRIDIUM 137             
1 43076U 17083G   25239.83202836 -.00000008  00000+0 -98846-5 0  9991
2 43076  86.3914  84.7913 0002628  80.8381 279.3112 14.34217389402127
IRIDIUM 141             
1 43077U 17083H   25239.82568389  .00000111  00000+0  32515-4 0  9992
2 43077  86.3908  84.6409 0002007  85.8718 274.2708 14.34217443402126
IRIDIUM 153             
1 43078U 17083J   25239.84763085  .00000017  00000+0 -86906-6 0  9996
2 43078  86.3931  53.0835 0001722  92.8926 267.2467 14.34217702403233
IRIDIUM 131             
1 43079U 17083K   25239.81299886 -.00000021  00000+0 -14585-4 0  9995
2 43079  86.3915  84.8129 0001967  83.4744 276.6676 14.34217420402051
